QIANFAN-17              
1 60395U 24140S   25341.91966718  .00000117  00000+0  16216-3 0  9993
2 60395  88.9765 299.9326 0013463 214.7944 145.2328 13.50975807 67481
QIANFAN-18              
1 60396U 24140T   25341.89908551  .00000111  00000+0  15336-3 0  9998
2 60396  88.9758 299.4686 0013257 195.6428 164.4315 13.50975833 66873
QIANFAN-19              
1 61552U 24185A   25341.91522446  .00000898  00000+0  46309-3 0  9996
2 61552  88.9822  78.4933 0005557 335.4347  24.6574 14.14288547 68986
QIANFAN-20              
1 61553U 24185B   25341.92912355  .00000920  00000+0  52506-3 0  9992
2 61553  88.9820  78.8107 0005911  21.1153 339.0274 14.08835047 68818
QIANFAN-21              
1 61554U 24185C   25341.96758464  .00001070  00000+0  47263-3 0  9997
2 61554  88.9737  77.5376 0011181  29.9526 330.2303 14.22597489 69296
QIANFAN-22              
1 61555U 24185D   25341.88161610  .00000302  00000+0  24973-3 0  9990
2 61555  88.9804  79.7775 0006855  27.9682 332.1857 13.86300024 68269
QIANFAN-23              
1 61556U 24185E   25341.89741610  .00000780  00000+0  38658-3 0  9991
2 61556  88.9814  78.3073 0006676 347.1378  12.9639 14.16285051 69063
QIANFAN-24              
1 61557U 24185F   25341.90399919  .00001121  00000+0  48396-3 0  9995
2 61557  88.9795  77.7194 0007822 323.5181  36.5477 14.23799838 69336
